{
    "type": "FeatureCollection",
    "name": "sample_river2",
    "crs": {
        "type": "name",
        "properties": {
            "name": "urn:ogc:def:crs:OGC:1.3:CRS84"
        }
    },
    "features": [
        {
            "type": "Feature",
            "properties": {},
            "geometry": {
                "type": "Polygon",
                "coordinates": [
                    [
                        [
                            112.175689237672429,
                            -8.165662974478556
                        ],
                        [
                            112.175697042840397,
                            -8.165594028828224
                        ],
                        [
                            112.176006647836218,
                            -8.165630452945381
                        ],
                        [
                            112.176588132849403,
                            -8.165690292566424
                        ],
                        [
                            112.177125388577466,
                            -8.165731920128888
                        ],
                        [
                            112.17733222552846,
                            -8.165748831326139
                        ],
                        [
                            112.177327022083148,
                            -8.165793060611259
                        ],
                        [
                            112.175689237672429,
                            -8.165662974478556
                        ]
                    ]
                ]
            }
        },
        {
            "type": "Feature",
            "properties": {},
            "geometry": {
                "type": "Polygon",
                "coordinates": [
                    [
                        [
                            112.173073530759055,
                            -8.165408005658456
                        ],
                        [
                            112.173504115858293,
                            -8.165455487096892
                        ],
                        [
                            112.173832583343369,
                            -8.165482805184759
                        ],
                        [
                            112.173841038941987,
                            -8.165485406907413
                        ],
                        [
                            112.173988036271979,
                            -8.165497765090018
                        ],
                        [
                            112.1742638188733,
                            -8.165522481455231
                        ],
                        [
                            112.174613750570245,
                            -8.165549799543099
                        ],
                        [
                            112.174777659097458,
                            -8.165561507295042
                        ],
                        [
                            112.17543524449826,
                            -8.165632404237366
                        ],
                        [
                            112.175648585755894,
                            -8.165657771033244
                        ],
                        [
                            112.175656390923862,
                            -8.165596630550873
                        ],
                        [
                            112.174626108752861,
                            -8.165493862506038
                        ],
                        [
                            112.17421113398953,
                            -8.165461991403527
                        ],
                        [
                            112.173950311293467,
                            -8.165431421162342
                        ],
                        [
                            112.17335321594436,
                            -8.165375484125281
                        ],
                        [
                            112.173081986357673,
                            -8.16533255570149
                        ],
                        [
                            112.173073530759055,
                            -8.165408005658456
                        ]
                    ]
                ]
            }
        }
    ]
}